YAM-7                   
1 60504U 24149AN  26068.71799904  .00009009  00000+0  30984-3 0  9997
2 60504  97.3828 149.4631 0001973 296.5121  63.5918 15.30304554 86835
STARLINK-34364          
1 64495U 25133Z   26068.52075354  .00027498  00000+0  93719-3 0  9996
2 64495  53.1589 115.3473 0001145  83.2441 276.8690 15.30197284 41191
